     2              NAVIGATION DATA                         RINEX VERSION / TYPE
CCRINEXN V1.6.0 UX  CDDIS               24-JUN-16 15:33     PGM / RUN BY / DATE 
IGS BROADCAST EPHEMERIS FILE                                COMMENT             
    0.4657D-08  0.1490D-07 -0.5960D-07 -0.1192D-06          ION ALPHA           
    0.8192D+05  0.9830D+05 -0.6554D+05 -0.5243D+06          ION BETA            
    0.000000000000D+00-0.799360577730D-14   503808     1902 DELTA-UTC: A0,A1,T,W
    17                                                      LEAP SECONDS        
                                                            END OF HEADER       
10 16  6 23 16  0  0.0-0.515808351338D-04-0.795807864051D-11 0.000000000000D+00
    0.210000000000D+02 0.279687500000D+02 0.456876173584D-08 0.274826780868D+01
    0.156089663506D-05 0.158627855126D-02 0.781938433647D-05 0.515367865181D+04
    0.403200000000D+06-0.931322574616D-08-0.162413828008D+01-0.614672899246D-07
    0.959113918487D+00 0.227343750000D+03-0.271659653489D+01-0.798890419850D-08
    0.505021036153D-09 0.000000000000D+00 0.190200000000D+04 0.000000000000D+00
    0.200000000000D+01 0.000000000000D+00 0.232830643654D-08 0.210000000000D+02
    0.396000000000D+06 0.400000000000D+01 0.000000000000D+00 0.000000000000D+00
11 16  6 23 16  0  0.0-0.653034541756D-03-0.238742359215D-11 0.000000000000D+00
    0.330000000000D+02-0.104156250000D+03 0.573988194626D-08-0.179824565396D+01
   -0.532530248165D-05 0.164999827975D-01 0.813417136669D-05 0.515366893959D+04
    0.403200000000D+06 0.249594449997D-06-0.304031962602D+01 0.368803739548D-06
    0.897357124355D+00 0.184437500000D+03 0.153472514986D+01-0.848928218411D-08
   -0.292512184307D-09 0.100000000000D+01 0.190200000000D+04 0.000000000000D+00
    0.200000000000D+01 0.000000000000D+00-0.121071934700D-07 0.330000000000D+02
    0.401790000000D+06 0.400000000000D+01 0.000000000000D+00 0.000000000000D+00
12 16  6 23 16  0  0.0 0.383519567549D-03 0.102318153950D-11 0.000000000000D+00
    0.690000000000D+02 0.973750000000D+02 0.411624288661D-08-0.249738380517D+01
    0.508315861225D-05 0.614022859372D-02 0.464729964733D-05 0.515371281624D+04
    0.403200000000D+06 0.165775418282D-06 0.157390408267D+01-0.169500708580D-06
    0.990054211618D+00 0.303093750000D+03 0.769612613157D+00-0.802069123684D-08
    0.343942898031D-09 0.000000000000D+00 0.190200000000D+04 0.000000000000D+00
    0.280000000000D+01 0.000000000000D+00-0.125728547573D-07 0.690000000000D+02
    0.396000000000D+06 0.400000000000D+01 0.000000000000D+00 0.000000000000D+00
13 16  6 23 16  0  0.0-0.266442075372D-04-0.250111042988D-11 0.000000000000D+00
    0.990000000000D+02-0.161250000000D+02 0.453911764390D-08-0.988241549324D+00
   -0.927597284317D-06 0.424291577656D-02 0.701658427715D-05 0.515367550850D+04
    0.403200000000D+06-0.409781932831D-07-0.459569151951D+00-0.931322574616D-08
    0.971353110996D+00 0.253218750000D+03 0.200201721752D+01-0.803926343902D-08
   -0.306084178206D-09 0.000000000000D+00 0.190200000000D+04 0.000000000000D+00
    0.200000000000D+01 0.000000000000D+00-0.111758708954D-07 0.990000000000D+02
    0.396000000000D+06 0.400000000000D+01 0.000000000000D+00 0.000000000000D+00
14 16  6 23 16  0  0.0-0.209049321711D-04-0.204636307899D-11 0.000000000000D+00
    0.890000000000D+02-0.151562500000D+02 0.472983987396D-08 0.646225184021D+00
   -0.933185219765D-06 0.878418097273D-02 0.640004873276D-05 0.515402254486D+04
    0.403200000000D+06-0.115483999252D-06-0.496773734906D+00 0.558793544769D-08
    0.963810905176D+00 0.256843750000D+03-0.196295636268D+01-0.824105755884D-08
   -0.343228582562D-09 0.000000000000D+00 0.190200000000D+04 0.000000000000D+00
    0.200000000000D+01 0.000000000000D+00-0.931322574616D-08 0.890000000000D+02
    0.397830000000D+06 0.400000000000D+01 0.000000000000D+00 0.000000000000D+00
16 16  6 23 16  0  0.0-0.902405008674D-05 0.238742359215D-11 0.000000000000D+00
    0.960000000000D+02 0.829062500000D+02 0.413410077332D-08 0.174976779502D+01
    0.449456274509D-05 0.872169958893D-02 0.461563467979D-05 0.515378065681D+04
    0.403200000000D+06-0.132247805595D-06 0.159270016617D+01 0.229105353355D-06
    0.990557121892D+00 0.308781250000D+03 0.395696460403D+00-0.806462163815D-08
    0.191793703263D-09 0.100000000000D+01 0.190200000000D+04 0.000000000000D+00
    0.200000000000D+01 0.000000000000D+00-0.107102096081D-07 0.960000000000D+02
    0.401190000000D+06 0.400000000000D+01 0.000000000000D+00 0.000000000000D+00
17 16  6 23 16  0  0.0-0.204012263566D-03 0.000000000000D+00 0.000000000000D+00
    0.410000000000D+02-0.854375000000D+02 0.447804371362D-08 0.902315699814D+00
   -0.442937016487D-05 0.109884940321D-01 0.345334410667D-05 0.515370846939D+04
    0.403200000000D+06-0.186264514923D-06 0.261429555282D+01 0.651925802231D-07
    0.976829773041D+00 0.326843750000D+03-0.192777049403D+01-0.844070857653D-08
   -0.414302980811D-09 0.100000000000D+01 0.190200000000D+04 0.000000000000D+00
    0.200000000000D+01 0.000000000000D+00-0.107102096081D-07 0.410000000000D+02
    0.396000000000D+06 0.000000000000D+00 0.000000000000D+00 0.000000000000D+00
18 16  6 23 16  0  0.0 0.529487151653D-03 0.397903932026D-11 0.000000000000D+00
    0.520000000000D+02 0.220312500000D+02 0.518450166959D-08 0.245850751500D+01
    0.108219683170D-05 0.172523820074D-01 0.779330730438D-05 0.515368997765D+04
    0.403200000000D+06 0.195577740669D-06-0.165412684991D+01-0.204890966415D-06
    0.924617660643D+00 0.205906250000D+03-0.187612219319D+01-0.802962018020D-08
    0.497520723735D-09 0.000000000000D+00 0.190200000000D+04 0.000000000000D+00
    0.200000000000D+01 0.000000000000D+00-0.121071934700D-07 0.520000000000D+02
    0.396000000000D+06 0.400000000000D+01 0.000000000000D+00 0.000000000000D+00
19 16  6 23 16  0  0.0-0.525355804712D-03 0.227373675443D-12 0.000000000000D+00
    0.330000000000D+02-0.101843750000D+03 0.445125669657D-08-0.226212608693D+01
   -0.519677996635D-05 0.107799649704D-01 0.319071114063D-05 0.515362591553D+04
    0.403200000000D+06 0.167638063431D-06 0.266300133292D+01-0.372529029846D-07
    0.973978491576D+00 0.322718750000D+03 0.799041615359D+00-0.819534129448D-08
   -0.248581794038D-09 0.100000000000D+01 0.190200000000D+04 0.000000000000D+00
    0.200000000000D+01 0.000000000000D+00-0.149011611938D-07 0.330000000000D+02
    0.396000000000D+06 0.000000000000D+00 0.000000000000D+00 0.000000000000D+00
20 16  6 23 16  0  0.0 0.420165248215D-03 0.227373675443D-11 0.000000000000D+00
    0.270000000000D+02 0.236250000000D+02 0.525521890096D-08 0.863060399758D-01
    0.139698386192D-05 0.455442676321D-02 0.834465026855D-05 0.515375173760D+04
    0.403200000000D+06-0.115483999252D-06-0.170592075353D+01 0.186264514923D-07
    0.925915574729D+00 0.201906250000D+03 0.138703100768D+01-0.837249160502D-08
    0.527521973408D-09 0.000000000000D+00 0.190200000000D+04 0.000000000000D+00
    0.200000000000D+01 0.000000000000D+00-0.838190317154D-08 0.270000000000D+02
    0.396000000000D+06 0.400000000000D+01 0.000000000000D+00 0.000000000000D+00
21 16  6 23 16  0  0.0-0.526614952832D-03-0.102318153950D-11 0.000000000000D+00
    0.400000000000D+02-0.956250000000D+02 0.452840291187D-08-0.292188145063D+01
   -0.492297112942D-05 0.233530513942D-01 0.101868063211D-04 0.515360310364D+04
    0.403200000000D+06 0.288709998131D-06-0.269593292381D+01-0.726431608200D-07
    0.936924205900D+00 0.164437500000D+03-0.178164637163D+01-0.761317426212D-08
    0.500020827874D-10 0.000000000000D+00 0.190200000000D+04 0.000000000000D+00
    0.200000000000D+01 0.000000000000D+00-0.102445483208D-07 0.400000000000D+02
    0.396000000000D+06 0.400000000000D+01 0.000000000000D+00 0.000000000000D+00
22 16  6 23 16  0  0.0 0.313273165375D-03-0.886757334229D-11 0.000000000000D+00
    0.450000000000D+02 0.360625000000D+02 0.542951187525D-08 0.446094239856D+00
    0.197626650333D-05 0.767432397697D-02 0.775605440140D-05 0.515378935051D+04
    0.403200000000D+06-0.268220901489D-06-0.165353386485D+01-0.372529029846D-08
    0.922525741917D+00 0.212750000000D+03-0.190181674150D+01-0.848963934184D-08
    0.407874132452D-09 0.000000000000D+00 0.190200000000D+04 0.000000000000D+00
    0.200000000000D+01 0.000000000000D+00-0.176951289177D-07 0.450000000000D+02
    0.396840000000D+06 0.400000000000D+01 0.000000000000D+00 0.000000000000D+00
23 16  6 23 16  0  0.0-0.179331284016D-03-0.159161572810D-11 0.000000000000D+00
    0.440000000000D+02-0.158750000000D+02 0.518235872318D-08-0.410195058202D+00
   -0.605359673500D-06 0.110499642324D-01 0.583566725254D-05 0.515365035248D+04
    0.403200000000D+06 0.875443220139D-07-0.575667495205D+00 0.154599547386D-06
    0.945812938574D+00 0.258500000000D+03-0.256076646012D+01-0.848821071090D-08
   -0.226080845746D-09 0.100000000000D+01 0.190200000000D+04 0.000000000000D+00
    0.200000000000D+01 0.000000000000D+00-0.200234353542D-07 0.440000000000D+02
    0.396000000000D+06 0.400000000000D+01 0.000000000000D+00 0.000000000000D+00
24 16  6 23 16  0  0.0-0.190394930542D-04-0.568434188608D-12 0.000000000000D+00
    0.800000000000D+02 0.409375000000D+02 0.463090718159D-08-0.958233778695D+00
    0.219419598579D-05 0.443048414309D-02 0.111497938633D-04 0.515361825561D+04
    0.403200000000D+06 0.987201929092D-07 0.449474082400D+00-0.484287738800D-07
    0.949523858497D+00 0.157875000000D+03 0.410850106105D+00-0.800783355841D-08
   -0.239652839646D-09 0.000000000000D+00 0.190200000000D+04 0.000000000000D+00
    0.280000000000D+01 0.000000000000D+00 0.232830643654D-08 0.800000000000D+02
    0.396000000000D+06 0.400000000000D+01 0.000000000000D+00 0.000000000000D+00
